NORAD_CAT_ID,OBJECT_NAME,OBJECT_TYPE,EPOCH,MEAN_MOTION,ECCENTRICITY,INCLINATION,RA_OF_ASC_NODE,ARG_OF_PERICENTER,MEAN_ANOMALY,BSTAR,MEAN_MOTION_DOT,MEAN_MOTION_DDOT,TLE_LINE0,TLE_LINE1,TLE_LINE2,SEMIMAJOR_AXIS,PERIOD,APOGEE,PERIGEE,DECAYED
49729.0,STARLINK-3251,PAYLOAD,2022-04-17 22:00:00,15.0884419,0.0002463,53.2165,61.7133,42.5292,262.8509,0.00050029,7.684e-05,0.0,0 STARLINK-3251,1 49729U 21115F   22107.91667824  .00007684  00000-0  50029-3 0  9990,2 49729  53.2165  61.7133 0002463  42.5292 262.8509 15.08844190  3561,6917.868,95.437,541.436,538.029,0.0
49729.0,STARLINK-3251,PAYLOAD,2022-04-18 08:00:01,15.0882875,0.0002672,53.2165,59.8446,38.2586,11.6287,0.0032458,0.00051734,0.0,0 STARLINK-3251,1 49729U 21115F   22108.33334491  .00051734  00000-0  32458-2 0  9998,2 49729  53.2165  59.8446 0002672  38.2586  11.6287 15.08828750 21923,6917.915,95.438,541.628,537.931,0.0
49729.0,STARLINK-3251,PAYLOAD,2022-04-18 14:00:01,15.08870961,0.0002541,53.2167,58.7209,40.2957,288.289,-0.002237,-0.00035746,0.0,0 STARLINK-3251,1 49729U 21115F   22108.58334491 -.00035746  00000-0 -22370-2 0  9994,2 49729  53.2167  58.7209 0002541  40.2957 288.2890 15.08870961  3596,6917.786,95.436,541.409,537.893,0.0
49729.0,STARLINK-3251,PAYLOAD,2022-04-18 22:00:00,15.08854134,0.0002497,53.2171,57.2244,42.6725,297.5303,-0.00042223,-7.005e-05,0.0,0 STARLINK-3251,1 49729U 21115F   22108.91667824 -.00007005  00000-0 -42223-3 0  9997,2 49729  53.2171  57.2244 0002497  42.6725 297.5303 15.08854134 22017,6917.837,95.437,541.43,537.975,0.0
49729.0,STARLINK-3251,PAYLOAD,2022-04-19 14:00:01,15.08840424,0.000248,53.2173,54.2319,39.45,323.9772,-0.00048031,-7.925e-05,0.0,0 STARLINK-3251,1 49729U 21115F   22109.58334491 -.00007925  00000-0 -48031-3 0  9996,2 49729  53.2173  54.2319 0002480  39.4500 323.9772 15.08840424  3612,6917.879,95.438,541.46,538.028,0.0
49729.0,STARLINK-3251,PAYLOAD,2022-04-20 06:00:00,15.08804494,0.0002612,53.2177,51.2409,37.0154,349.5974,0.0032751,0.00052172,0.0,0 STARLINK-3251,1 49729U 21115F   22110.25001157  .00052172  00000-0  32751-2 0  9995,2 49729  53.2177  51.2409 0002612  37.0154 349.5974 15.08804494 22211,6917.989000000001,95.44,541.661,538.047,0.0
49729.0,STARLINK-3251,PAYLOAD,2022-04-20 14:00:01,15.08839719,0.0002427,53.2178,49.743,38.7348,359.4552,-0.00033568,-5.627e-05,0.0,0 STARLINK-3251,1 49729U 21115F   22110.58334491 -.00005627  00000-0 -33568-3 0  9994,2 49729  53.2178  49.7430 0002427  38.7348 359.4552 15.08839719  3607,6917.880999999999,95.438,541.425,538.067,0.0
49729.0,STARLINK-3251,PAYLOAD,2022-04-20 22:00:00,15.08852726,0.0002386,53.218,48.2468,40.0504,9.7342,-0.0020185,-0.00032282,0.0,0 STARLINK-3251,1 49729U 21115F   22110.91667824 -.00032282  00000-0 -20185-2 0  9997,2 49729  53.2180  48.2468 0002386  40.0504   9.7342 15.08852726 22313,6917.840999999999,95.437,541.357,538.056,0.0
49729.0,STARLINK-3251,PAYLOAD,2022-04-21 14:00:01,15.0884524,0.0002334,53.2178,45.2539,38.6557,34.3127,-0.00066282,-0.00010824,0.0,0 STARLINK-3251,1 49729U 21115F   22111.58334491 -.00010824  00000-0 -66282-3 0  9999,2 49729  53.2178  45.2539 0002334  38.6557  34.3127 15.08845240  3609,6917.864000000001,95.437,541.344,538.115,0.0
49729.0,STARLINK-3251,PAYLOAD,2022-04-21 22:00:00,15.08854197,0.000229,53.2179,43.7579,39.6743,44.9026,-0.00073483,-0.00011969,0.0,0 STARLINK-3251,1 49729U 21115F   22111.91667824 -.00011969  00000-0 -73483-3 0  9997,2 49729  53.2179  43.7579 0002290  39.6743  44.9026 15.08854197  3590,6917.837,95.437,541.286,538.118,0.0
49729.0,STARLINK-3251,PAYLOAD,2022-04-22 14:00:01,15.08844715,0.0002167,53.2176,40.7647,36.8284,70.9678,-0.001424,-0.00022883,0.0,0 STARLINK-3251,1 49729U 21115F   22112.58334491 -.00022883  00000-0 -14240-2 0  9994,2 49729  53.2176  40.7647 0002167  36.8284  70.9678 15.08844715  3612,6917.866,95.437,541.23,538.232,0.0
49729.0,STARLINK-3251,PAYLOAD,2022-04-22 22:00:00,15.08840001,0.0002135,53.2176,39.2688,36.5695,82.8212,-0.0010949,-0.00017672,0.0,0 STARLINK-3251,1 49729U 21115F   22112.91667824 -.00017672  00000-0 -10949-2 0  9992,2 49729  53.2176  39.2688 0002135  36.5695  82.8212 15.08840001 22619,6917.88,95.438,541.222,538.268,0.0
49729.0,STARLINK-3251,PAYLOAD,2022-04-23 14:00:01,15.08802657,0.0002045,53.2172,36.2756,34.0073,108.5452,0.0024115,0.00038261,0.0,0 STARLINK-3251,1 49729U 21115F   22113.58334491  .00038261  00000-0  24115-2 0  9992,2 49729  53.2172  36.2756 0002045  34.0073 108.5452 15.08802657  3561,6917.995,95.44,541.274,538.445,0.0
49729.0,STARLINK-3251,PAYLOAD,2022-04-23 22:00:00,15.08846556,0.0002098,53.2172,34.7799,36.1463,117.9687,-0.00088691,-0.00014379,0.0,0 STARLINK-3251,1 49729U 21115F   22113.91667824 -.00014379  00000-0 -88691-3 0  9994,2 49729  53.2172  34.7799 0002098  36.1463 117.9687 15.08846556 22779,6917.86,95.437,541.177,538.274,0.0
49729.0,STARLINK-3251,PAYLOAD,2022-04-24 14:00:01,15.08829964,0.0002032,53.2167,31.7863,34.9047,142.4335,0.0011454,0.00017983,0.0,0 STARLINK-3251,1 49729U 21115F   22114.58334491  .00017983  00000-0  11454-2 0  9993,2 49729  53.2167  31.7863 0002032  34.9047 142.4335 15.08829964 22872,6917.911,95.438,541.182,538.37,0.0
49729.0,STARLINK-3251,PAYLOAD,2022-04-25 06:00:00,15.08813213,0.0002281,53.2167,28.7953,33.1492,167.3679,0.00096382,0.00015073,0.0,0 STARLINK-3251,1 49729U 21115F   22115.25001157  .00015073  00000-0  96382-3 0  9990,2 49729  53.2167  28.7953 0002281  33.1492 167.3679 15.08813213 22977,6917.962,95.439,541.405,538.249,0.0
49729.0,STARLINK-3251,PAYLOAD,2022-04-25 14:00:01,15.08805029,0.0002104,53.2168,27.2971,36.4987,175.5947,0.0023447,0.0003719,0.0,0 STARLINK-3251,1 49729U 21115F   22115.58334491  .00037190  00000-0  23447-2 0  9991,2 49729  53.2168  27.2971 0002104  36.4987 175.5947 15.08805029  3593,6917.986999999999,95.44,541.308,538.3969999999998,0.0
49729.0,STARLINK-3251,PAYLOAD,2022-04-25 22:00:00,15.08835598,0.0002258,53.2171,25.8018,38.8898,184.7741,-0.0021789,-0.00034796,0.0,0 STARLINK-3251,1 49729U 21115F   22115.91667824 -.00034796  00000-0 -21789-2 0  9995,2 49729  53.2171  25.8018 0002258  38.8898 184.7741 15.08835598  3600,6917.894,95.438,541.321,538.197,0.0
49729.0,STARLINK-3251,PAYLOAD,2022-04-26 06:00:00,15.08812875,0.0002411,53.217,24.3063,36.5194,198.7241,0.0027498,0.00043715,0.0,0 STARLINK-3251,1 49729U 21115F   22116.25001157  .00043715  00000-0  27498-2 0  9996,2 49729  53.2170  24.3063 0002411  36.5194 198.7241 15.08812875 23120,6917.9630000000025,95.439,541.496,538.16,0.0
49729.0,STARLINK-3251,PAYLOAD,2022-04-26 14:00:01,15.08817262,0.0002234,53.2173,22.808000000000003,40.0139,206.8776,0.0030132,0.00047965,0.0,0 STARLINK-3251,1 49729U 21115F   22116.58335648  .00047965  00000-0  30132-2 0  9997,2 49729  53.2173  22.8080 0002234  40.0139 206.8776 15.08817262  3595,6917.95,95.439,541.36,538.269,0.0
49729.0,STARLINK-3251,PAYLOAD,2022-04-26 22:00:00,15.08856163,0.0002347,53.2175,21.3129,39.155,219.2627,-0.0024931,-0.00039767,0.0,0 STARLINK-3251,1 49729U 21115F   22116.91667824 -.00039767  00000-0 -24931-2 0  9991,2 49729  53.2175  21.3129 0002347  39.1550 219.2627 15.08856163 23224,6917.831,95.437,541.32,538.072,0.0
49729.0,STARLINK-3251,PAYLOAD,2022-04-27 14:00:01,15.08799633,0.0002184,53.2178,18.31900000000001,37.6768,244.0004,0.003357,0.00053486,0.0,0 STARLINK-3251,1 49729U 21115F   22117.58335648  .00053486  00000-0  33570-2 0  9992,2 49729  53.2178  18.3190 0002184  37.6768 244.0004 15.08799633 23328,6918.004,95.44,541.38,538.3580000000002,0.0
49729.0,STARLINK-3251,PAYLOAD,2022-04-28 14:00:01,15.08845687,0.0002148,53.2182,13.8301,37.9426,278.4948,0.001491,0.00023525,0.0,0 STARLINK-3251,1 49729U 21115F   22118.58334491  .00023525  00000-0  14910-2 0  9996,2 49729  53.2182  13.8301 0002148  37.9426 278.4948 15.08845687 23476,6917.863,95.437,541.214,538.242,0.0
49729.0,STARLINK-3251,PAYLOAD,2022-04-29 06:00:00,15.0887068,0.0002281,53.2179,10.8391,32.4252,307.2401,-0.0044317,-0.00070194,0.0,0 STARLINK-3251,1 49729U 21115F   22119.25001157 -.00070194  00000-0 -44317-2 0  9991,2 49729  53.2179  10.8391 0002281  32.4252 307.2401 15.08870680 23570,6917.7869999999975,95.436,541.23,538.0740000000002,0.0
49729.0,STARLINK-3251,PAYLOAD,2022-04-29 14:00:01,15.08799908,0.0002051,53.2182,9.3413,35.2639,316.0067,0.0022961,0.00036404,0.0,0 STARLINK-3251,1 49729U 21115F   22119.58334491  .00036404  00000-0  22961-2 0  9992,2 49729  53.2182   9.3413 0002051  35.2639 316.0067 15.08799908  3563,6918.003000000002,95.44,541.2869999999998,538.4490000000002,0.0
49729.0,STARLINK-3251,PAYLOAD,2022-04-29 22:00:00,15.08815647,0.0002237,53.2182,7.8465,35.5241,327.313,-0.00031017,-5.218e-05,0.0,0 STARLINK-3251,1 49729U 21115F   22119.91667824 -.00005218  00000-0 -31017-3 0  9992,2 49729  53.2182   7.8465 0002237  35.5241 327.3130 15.08815647 23670,6917.955,95.439,541.367,538.2719999999998,0.0
49729.0,STARLINK-3251,PAYLOAD,2022-04-30 14:00:01,15.08786483,0.0002025,53.2177,4.8525,36.7483,349.2389,0.0042951,0.00068635,0.0,0 STARLINK-3251,1 49729U 21115F   22120.58334491  .00068635  00000-0  42951-2 0  9996,2 49729  53.2177   4.8525 0002025  36.7483 349.2389 15.08786483  3575,6918.044,95.441,541.31,538.508,0.0
49729.0,STARLINK-3251,PAYLOAD,2022-04-30 22:00:00,15.08845336,0.000217,53.2176,3.3579,34.2409,3.3042,-0.0019436,-0.00031093,0.0,0 STARLINK-3251,1 49729U 21115F   22120.91667824 -.00031093  00000-0 -19436-2 0  9994,2 49729  53.2176   3.3579 0002170  34.2409   3.3042 15.08845336 23826,6917.864000000001,95.437,541.23,538.2280000000002,0.0
49729.0,STARLINK-3251,PAYLOAD,2022-05-01 14:00:01,15.08809899,0.0002001,53.2169,0.3636,36.8248,23.8782,0.0023508,0.00037293,0.0,0 STARLINK-3251,1 49729U 21115F   22121.58334491  .00037293  00000-0  23508-2 0  9990,2 49729  53.2169   0.3636 0002001  36.8248  23.8782 15.08809899  3584,6917.972,95.439,541.222,538.453,0.0
